{"type": "FeatureCollection", "features": [ {"type": "Feature", "properties": {"norad_id": 34375, "name": "IRIDIUM 33 DEB", "group": "iridium-33-debris", "lat": -17.524818598917328, "lon": -175.96040639281256, "alt_km": 908.166786118104, "timestamp": "2025-12-06T14:35:37.510946+00:00", "meta": {"OBJECT_NAME": "IRIDIUM 33 DEB", "OBJECT_ID": "1997-051FT", "EPOCH": "2025-12-05T15:16:24.636000", "MEAN_MOTION": 14.17972992, "ECCENTRICITY": 0.01027304, "INCLINATION": 86.433, "RA_OF_ASC_NODE": 185.5598, "ARG_OF_PERICENTER": 149.095, "MEAN_ANOMALY": 276.7622, "EPHEMERIS_TYPE": 0, "CLASSIFICATION_TYPE": "U", "NORAD_CAT_ID": 34375, "ELEMENT_SET_NO": 999, "REV_AT_EPOCH": 86611, "BSTAR": 0.00068728218, "MEAN_MOTION_DOT": 1.5e-05, "MEAN_MOTION_DDOT": 0}, "tle": {"line1": "1 34375U 97051FT  25339.63639625  .00001500  00000+0  68728-3 0  9995", "line2": "2 34375  86.4330 185.5598 0102730 149.0950 276.7622 14.17972992866115"}}, "geometry": {"type": "Point", "coordinates": [-175.96040639281256, -17.524818598917328]}}, {"type": "Feature", "properties": {"norad_id": 34376, "name": "IRIDIUM 33 DEB", "group": "iridium-33-debris", "lat": 84.75401364050886, "lon": 144.45901507476825, "alt_km": 679.059714369505, "timestamp": "2025-12-06T14:35:37.510958+00:00", "meta": {"OBJECT_NAME": "IRIDIUM 33 DEB", "OBJECT_ID": "1997-051FU", "EPOCH": "2025-12-06T01:01:40.372896", "MEAN_MOTION": 14.62422379, "ECCENTRICITY": 0.00263989, "INCLINATION": 86.2983, "RA_OF_ASC_NODE": 9.5506, "ARG_OF_PERICENTER": 189.4299, "MEAN_ANOMALY": 170.642, "EPHEMERIS_TYPE": 0, "CLASSIFICATION_TYPE": "U", "NORAD_CAT_ID": 34376, "ELEMENT_SET_NO": 999, "REV_AT_EPOCH": 87909, "BSTAR": 0.0022727198, "MEAN_MOTION_DOT": 0.00011586, "MEAN_MOTION_DDOT": 0}, "tle": {"line1": "1 34376U 97051FU  25340.04282839  .00011586  00000+0  22727-2 0  9997", "line2": "2 34376  86.2983   9.5506 0026398 189.4299 170.6420 14.62422379879099"}}, "geometry": {"type": "Point", "coordinates": [144.45901507476825, 84.75401364050886]}}, {"type": "Feature", "properties": {"norad_id": 34486, "name": "IRIDIUM 33 DEB", "group": "iridium-33-debris", "lat": -58.39397074229851, "lon": 8.970343891742239, "alt_km": 597.3583335826606, "timestamp": "2025-12-06T14:35:37.510969+00:00", "meta": {"OBJECT_NAME": "IRIDIUM 33 DEB", "OBJECT_ID": "1997-051GB", "EPOCH": "2025-12-05T13:52:10.857216", "MEAN_MOTION": 14.95311877, "ECCENTRICITY": 0.0013161, "INCLINATION": 86.3929, "RA_OF_ASC_NODE": 15.3294, "ARG_OF_PERICENTER": 136.3567, "MEAN_ANOMALY": 23.1276, "EPHEMERIS_TYPE": 0, "CLASSIFICATION_TYPE": "U", "NORAD_CAT_ID": 34486, "ELEMENT_SET_NO": 999, "REV_AT_EPOCH": 88879, "BSTAR": 0.0036168434, "MEAN_MOTION_DOT": 0.00040118, "MEAN_MOTION_DDOT": 0}, "tle": {"line1": "1 34486U 97051GB  25339.57790344  .00040118  00000+0  36168-2 0  9997", "line2": "2 34486  86.3929  15.3294 0013161 136.3567  23.1276 14.95311877888798"}}, "geometry": {"type": "Point", "coordinates": [8.970343891742239, -58.39397074229851]}}, {"type": "Feature", "properties": {"norad_id": 34487, "name": "IRIDIUM 33 DEB", "group": "iridium-33-debris", "lat": 30.642974533353218, "lon": 17.187947429315987, "alt_km": 756.6371976697201, "timestamp": "2025-12-06T14:35:37.510979+00:00", "meta": {"OBJECT_NAME": "IRIDIUM 33 DEB", "OBJECT_ID": "1997-051GC", "EPOCH": "2025-12-05T08:34:04.230624", "MEAN_MOTION": 14.43201608, "ECCENTRICITY": 0.00321216, "INCLINATION": 86.3441, "RA_OF_ASC_NODE": 15.5556, "ARG_OF_PERICENTER": 151.732, "MEAN_ANOMALY": 223.5238, "EPHEMERIS_TYPE": 0, "CLASSIFICATION_TYPE": "U", "NORAD_CAT_ID": 34487, "ELEMENT_SET_NO": 999, "REV_AT_EPOCH": 88142, "BSTAR": 0.00035058691, "MEAN_MOTION_DOT": 1.205e-05, "MEAN_MOTION_DDOT": 0}, "tle": {"line1": "1 34487U 97051GC  25339.35699341  .00001205  00000+0  35059-3 0  9992", "line2": "2 34487  86.3441  15.5556 0032121 151.7320 223.5238 14.43201608881426"}}, "geometry": {"type": "Point", "coordinates": [17.187947429315987, 30.642974533353218]}}, {"type": "Feature", "properties": {"norad_id": 34488, "name": "IRIDIUM 33 DEB", "group": "iridium-33-debris", "lat": -75.92059001444326, "lon": -66.00387786266285, "alt_km": 498.6210704087325, "timestamp": "2025-12-06T14:35:37.510990+00:00", "meta": {"OBJECT_NAME": "IRIDIUM 33 DEB", "OBJECT_ID": "1997-051GD", "EPOCH": "2025-12-05T15:20:16.790208", "MEAN_MOTION": 15.26946078, "ECCENTRICITY": 0.00151936, "INCLINATION": 86.3251, "RA_OF_ASC_NODE": 309.323, "ARG_OF_PERICENTER": 61.7168, "MEAN_ANOMALY": 298.561, "EPHEMERIS_TYPE": 0, "CLASSIFICATION_TYPE": "U", "NORAD_CAT_ID": 34488, "ELEMENT_SET_NO": 999, "REV_AT_EPOCH": 89131, "BSTAR": 0.0066018309, "MEAN_MOTION_DOT": 0.00179045, "MEAN_MOTION_DDOT": 0}, "tle": {"line1": "1 34488U 97051GD  25339.63908322  .00179045  00000+0  66018-2 0  9992", "line2": "2 34488  86.3251 309.3230 0015193  61.7168 298.5610 15.26946078891313"}}, "geometry": {"type": "Point", "coordinates": [-66.00387786266285, -75.92059001444326]}}, {"type": "Feature", "properties": {"norad_id": 34492, "name": "IRIDIUM 33 DEB", "group": "iridium-33-debris", "lat": 32.83481758852865, "lon": 154.82755350949225, "alt_km": 851.798395431053, "timestamp": "2025-12-06T14:35:37.511000+00:00", "meta": {"OBJECT_NAME": "IRIDIUM 33 DEB", "OBJECT_ID": "1997-051GH", "EPOCH": "2025-12-06T00:41:00.544992", "MEAN_MOTION": 14.2544154, "ECCENTRICITY": 0.01899132, "INCLINATION": 86.4749, "RA_OF_ASC_NODE": 337.3411, "ARG_OF_PERICENTER": 259.9437, "MEAN_ANOMALY": 156.6949, "EPHEMERIS_TYPE": 0, "CLASSIFICATION_TYPE": "U", "NORAD_CAT_ID": 34492, "ELEMENT_SET_NO": 999, "REV_AT_EPOCH": 84963, "BSTAR": 0.0084279404, "MEAN_MOTION_DOT": 0.000241, "MEAN_MOTION_DDOT": 0}, "tle": {"line1": "1 34492U 97051GH  25340.02847853  .00024100  00000+0  84279-2 0  9993", "line2": "2 34492  86.4749 337.3411 0189913 259.9437 156.6949 14.25441540849634"}}, "geometry": {"type": "Point", "coordinates": [154.82755350949225, 32.83481758852865]}}, {"type": "Feature", "properties": {"norad_id": 34497, "name": "IRIDIUM 33 DEB", "group": "iridium-33-debris", "lat": -13.438850492763555, "lon": 54.1300439877716, "alt_km": 749.2880257374363, "timestamp": "2025-12-06T14:35:37.511010+00:00", "meta": {"OBJECT_NAME": "IRIDIUM 33 DEB", "OBJECT_ID": "1997-051GN", "EPOCH": "2025-12-06T04:41:47.589216", "MEAN_MOTION": 14.27423869, "ECCENTRICITY": 0.00795001, "INCLINATION": 86.2786, "RA_OF_ASC_NODE": 55.1972, "ARG_OF_PERICENTER": 0.8311, "MEAN_ANOMALY": 28.2242, "EPHEMERIS_TYPE": 0, "CLASSIFICATION_TYPE": "U", "NORAD_CAT_ID": 34497, "ELEMENT_SET_NO": 999, "REV_AT_EPOCH": 86790, "BSTAR": 0.001072114, "MEAN_MOTION_DOT": 2.737e-05, "MEAN_MOTION_DDOT": 0}, "tle": {"line1": "1 34497U 97051GN  25340.19568969  .00002737  00000+0  10721-2 0  9997", "line2": "2 34497  86.2786  55.1972 0079500   0.8311  28.2242 14.27423869867905"}}, "geometry": {"type": "Point", "coordinates": [54.1300439877716, -13.438850492763555]}}, {"type": "Feature", "properties": {"norad_id": 34508, "name": "IRIDIUM 33 DEB", "group": "iridium-33-debris", "lat": -83.33128782910424, "lon": -41.882072856995876, "alt_km": 756.3422083982541, "timestamp": "2025-12-06T14:35:37.511020+00:00", "meta": {"OBJECT_NAME": "IRIDIUM 33 DEB", "OBJECT_ID": "1997-051GZ", "EPOCH": "2025-12-06T01:40:58.602144", "MEAN_MOTION": 14.38332013, "ECCENTRICITY": 0.00656496, "INCLINATION": 86.3709, "RA_OF_ASC_NODE": 105.4704, "ARG_OF_PERICENTER": 194.575, "MEAN_ANOMALY": 165.3557, "EPHEMERIS_TYPE": 0, "CLASSIFICATION_TYPE": "U", "NORAD_CAT_ID": 34508, "ELEMENT_SET_NO": 999, "REV_AT_EPOCH": 87213, "BSTAR": 0.0029041862, "MEAN_MOTION_DOT": 9.088e-05, "MEAN_MOTION_DDOT": 0}, "tle": {"line1": "1 34508U 97051GZ  25340.07012271  .00009088  00000+0  29042-2 0  9999", "line2": "2 34508  86.3709 105.4704 0065649 194.5750 165.3557 14.38332013872138"}}, "geometry": {"type": "Point", "coordinates": [-41.882072856995876, -83.33128782910424]}}, {"type": "Feature", "properties": {"norad_id": 34521, "name": "IRIDIUM 33 DEB", "group": "iridium-33-debris", "lat": -71.42198598231549, "lon": -135.8973942673686, "alt_km": 689.2314393307934, "timestamp": "2025-12-06T14:35:37.511030+00:00", "meta": {"OBJECT_NAME": "IRIDIUM 33 DEB", "OBJECT_ID": "1997-051HN", "EPOCH": "2025-12-05T14:28:10.515936", "MEAN_MOTION": 14.63269452, "ECCENTRICITY": 0.00010915, "INCLINATION": 86.3806, "RA_OF_ASC_NODE": 33.69, "ARG_OF_PERICENTER": 272.9891, "MEAN_ANOMALY": 87.1196, "EPHEMERIS_TYPE": 0, "CLASSIFICATION_TYPE": "U", "NORAD_CAT_ID": 34521, "ELEMENT_SET_NO": 999, "REV_AT_EPOCH": 88368, "BSTAR": 0.0017646216, "MEAN_MOTION_DOT": 9.121e-05, "MEAN_MOTION_DDOT": 0}, "tle": {"line1": "1 34521U 97051HN  25339.60289949  .00009121  00000+0  17646-2 0  9994", "line2": "2 34521  86.3806  33.6900 0001091 272.9891  87.1196 14.63269452883685"}}, "geometry": {"type": "Point", "coordinates": [-135.8973942673686, -71.42198598231549]}}, {"type": "Feature", "properties": {"norad_id": 34525, "name": "IRIDIUM 33 DEB", "group": "iridium-33-debris", "lat": 18.725797645599663, "lon": -131.77089047295192, "alt_km": 746.4610410210589, "timestamp": "2025-12-06T14:35:37.511043+00:00", "meta": {"OBJECT_NAME": "IRIDIUM 33 DEB", "OBJECT_ID": "1997-051HS", "EPOCH": "2025-12-06T03:59:55.296672", "MEAN_MOTION": 14.42880527, "ECCENTRICITY": 0.00065785, "INCLINATION": 86.3735, "RA_OF_ASC_NODE": 49.6493, "ARG_OF_PERICENTER": 110.3274, "MEAN_ANOMALY": 279.0864, "EPHEMERIS_TYPE": 0, "CLASSIFICATION_TYPE": "U", "NORAD_CAT_ID": 34525, "ELEMENT_SET_NO": 999, "REV_AT_EPOCH": 87993, "BSTAR": 0.0007253314, "MEAN_MOTION_DOT": 2.441e-05, "MEAN_MOTION_DDOT": 0}, "tle": {"line1": "1 34525U 97051HS  25340.16661223  .00002441  00000+0  72533-3 0  9995", "line2": "2 34525  86.3735  49.6493 0006578 110.3274 279.0864 14.42880527879935"}}, "geometry": {"type": "Point", "coordinates": [-131.77089047295192, 18.725797645599663]}}]}